HAWK-5A                 
1 52757U 22057AB  26180.42623243  .00017789  00000+0  29898-3 0  9995
2 52757  97.6613 340.0680 0004661  37.2744 322.8830 15.51817586228246
HAWK-6B                 
1 55324U 23011A   26180.44541630  .00003998  00000+0  17436-3 0  9992
2 55324  40.4991 280.5704 0001593 138.3527 221.7404 15.23037415189718
HAWK-6C                 
1 55326U 23011C   26180.51035959  .00003871  00000+0  16911-3 0  9991
2 55326  40.4975 277.0289 0002124 113.1236 246.9797 15.23035617189738
HAWK-6A                 
1 55327U 23011D   26180.44482507  .00003976  00000+0  17346-3 0  9998
2 55327  40.4986 279.0368 0001647 108.9912 251.1076 15.23035488189726
HAWK-7A                 
1 56191U 23054P   26180.23014060  .00005398  00000+0  20343-3 0  9998
2 56191  97.2691  67.2616 0003286  29.2543 330.8880 15.27482226178869
HAWK-7B                 
1 56193U 23054R   26179.77150354  .00005278  00000+0  19899-3 0  9995
2 56193  97.2721  65.0826 0003004  47.9436 312.2059 15.27475708178791
HAWK-7C                 
1 56200U 23054Y   26180.49199234  .00005327  00000+0  20078-3 0  9991
2 56200  97.2695  66.5499 0002696  36.1383 324.0039 15.27482826178900
