OBJECT_NAME,OBJECT_ID,EPOCH,MEAN_MOTION,ECCENTRICITY,INCLINATION,RA_OF_ASC_NODE,ARG_OF_PERICENTER,MEAN_ANOMALY,EPHEMERIS_TYPE,CLASSIFICATION_TYPE,NORAD_CAT_ID,ELEMENT_SET_NO,REV_AT_EPOCH,BSTAR,MEAN_MOTION_DOT,MEAN_MOTION_DDOT
HAWK-5A,2022-057AB,2026-06-29T10:13:46.481952,15.51817586,.0004661,97.6613,340.0680,37.2744,322.8830,0,U,52757,999,22824,.29898E-3,.17789E-3,0
HAWK-6B,2023-011A,2026-06-29T10:41:23.968320,15.23037415,.0001593,40.4991,280.5704,138.3527,221.7404,0,U,55324,999,18971,.17436E-3,.3998E-4,0
HAWK-6C,2023-011C,2026-06-29T12:14:55.068576,15.23035617,.0002124,40.4975,277.0289,113.1236,246.9797,0,U,55326,999,18973,.16911E-3,.3871E-4,0
HAWK-6A,2023-011D,2026-06-29T10:40:32.886048,15.23035488,.0001647,40.4986,279.0368,108.9912,251.1076,0,U,55327,999,18972,.17346E-3,.3976E-4,0
HAWK-7A,2023-054P,2026-06-29T05:31:24.147840,15.27482226,.0003286,97.2691,67.2616,29.2543,330.8880,0,U,56191,999,17886,.20343E-3,.5398E-4,0
HAWK-7B,2023-054R,2026-06-28T18:30:57.905856,15.27475708,.00030042,97.2721,65.0826,47.9436,312.2059,0,U,56193,999,17879,.19898854E-3,.5278E-4,0
HAWK-7C,2023-054Y,2026-06-29T11:48:28.138176,15.27482826,.0002696,97.2695,66.5499,36.1383,324.0039,0,U,56200,999,17890,.20078E-3,.5327E-4,0
